{"fetched_at":"2026-07-15T17:46:41.762Z","source":"https://celestrak.org/NORAD/elements/gp.php?GROUP=globalstar&FORMAT=JSON","constellation":"globalstar","records":[{"OBJECT_NAME":"GLOBALSTAR M080","OBJECT_ID":"2011-080B","EPOCH":"2026-07-14T13:08:38.086656","CLASSIFICATION_TYPE":"U","MEAN_MOTION":12.62257441,"ECCENTRICITY":0.00003085,"INCLINATION":52.0069,"RA_OF_ASC_NODE":295.7171,"ARG_OF_PERICENTER":83.6856,"MEAN_ANOMALY":289.7459,"EPHEMERIS_TYPE":0,"NORAD_CAT_ID":38041,"ELEMENT_SET_NO":999,"REV_AT_EPOCH":67234,"BSTAR":0.00013249163,"MEAN_MOTION_DOT":-8e-7,"MEAN_MOTION_DDOT":0},{"OBJECT_NAME":"GLOBALSTAR M082","OBJECT_ID":"2011-080C","EPOCH":"2026-07-15T02:50:10.917024","CLASSIFICATION_TYPE":"U","MEAN_MOTION":12.62264223,"ECCENTRICITY":0.0000183,"INCLINATION":52.0061,"RA_OF_ASC_NODE":249.4843,"ARG_OF_PERICENTER":88.3542,"MEAN_ANOMALY":288.7819,"EPHEMERIS_TYPE":0,"NORAD_CAT_ID":38042,"ELEMENT_SET_NO":999,"REV_AT_EPOCH":67312,"BSTAR":0.00018585,"MEAN_MOTION_DOT":-7e-7,"MEAN_MOTION_DDOT":0},{"OBJECT_NAME":"GLOBALSTAR M092","OBJECT_ID":"2011-080D","EPOCH":"2026-07-14T17:09:21.415680","CLASSIFICATION_TYPE":"U","MEAN_MOTION":12.62267766,"ECCENTRICITY":0.00007894,"INCLINATION":52.0105,"RA_OF_ASC_NODE":341.109,"ARG_OF_PERICENTER":102.5494,"MEAN_ANOMALY":0.1646,"EPHEMERIS_TYPE":0,"NORAD_CAT_ID":38043,"ELEMENT_SET_NO":999,"REV_AT_EPOCH":67152,"BSTAR":0.000060414712,"MEAN_MOTION_DOT":-9.3e-7,"MEAN_MOTION_DDOT":0},{"OBJECT_NAME":"GLOBALSTAR M090","OBJECT_ID":"2011-080E","EPOCH":"2026-07-15T01:31:11.889120","CLASSIFICATION_TYPE":"U","MEAN_MOTION":12.6226955,"ECCENTRICITY":0.0000428,"INCLINATION":52.0106,"RA_OF_ASC_NODE":243.6162,"ARG_OF_PERICENTER":90.9724,"MEAN_ANOMALY":275.573,"EPHEMERIS_TYPE":0,"NORAD_CAT_ID":38044,"ELEMENT_SET_NO":999,"REV_AT_EPOCH":67323,"BSTAR":0.00029896,"MEAN_MOTION_DOT":-5e-7,"MEAN_MOTION_DDOT":0},{"OBJECT_NAME":"GLOBALSTAR M086","OBJECT_ID":"2011-080F","EPOCH":"2026-07-15T04:04:38.977248","CLASSIFICATION_TYPE":"U","MEAN_MOTION":12.62287764,"ECCENTRICITY":0.0001512,"INCLINATION":51.9879,"RA_OF_ASC_NODE":243.1747,"ARG_OF_PERICENTER":111.7031,"MEAN_ANOMALY":283.0239,"EPHEMERIS_TYPE":0,"NORAD_CAT_ID":38045,"ELEMENT_SET_NO":999,"REV_AT_EPOCH":67319,"BSTAR":0.000098629,"MEAN_MOTION_DOT":-8.6e-7,"MEAN_MOTION_DDOT":0},{"OBJECT_NAME":"GLOBALSTAR M097","OBJECT_ID":"2013-005A","EPOCH":"2026-07-15T00:51:22.554144","CLASSIFICATION_TYPE":"U","MEAN_MOTION":12.62271393,"ECCENTRICITY":0.0000434,"INCLINATION":52.0028,"RA_OF_ASC_NODE":158.5617,"ARG_OF_PERICENTER":39.8828,"MEAN_ANOMALY":320.207,"EPHEMERIS_TYPE":0,"NORAD_CAT_ID":39072,"ELEMENT_SET_NO":999,"REV_AT_EPOCH":62042,"BSTAR":-0.00014019,"MEAN_MOTION_DOT":-0.00000129,"MEAN_MOTION_DDOT":0},{"OBJECT_NAME":"GLOBALSTAR M093","OBJECT_ID":"2013-005B","EPOCH":"2026-07-15T04:00:52.903872","CLASSIFICATION_TYPE":"U","MEAN_MOTION":12.62266314,"ECCENTRICITY":0.0000648,"INCLINATION":52.0089,"RA_OF_ASC_NODE":151.5186,"ARG_OF_PERICENTER":44.0148,"MEAN_ANOMALY":316.077,"EPHEMERIS_TYPE":0,"NORAD_CAT_ID":39073,"ELEMENT_SET_NO":999,"REV_AT_EPOCH":62039,"BSTAR":-0.000095205,"MEAN_MOTION_DOT":-0.00000121,"MEAN_MOTION_DDOT":0},{"OBJECT_NAME":"GLOBALSTAR M094","OBJECT_ID":"2013-005C","EPOCH":"2026-07-15T00:12:37.331424","CLASSIFICATION_TYPE":"U","MEAN_MOTION":12.62264165,"ECCENTRICITY":0.000099,"INCLINATION":51.9973,"RA_OF_ASC_NODE":66.0909,"ARG_OF_PERICENTER":62.0103,"MEAN_ANOMALY":298.0864,"EPHEMERIS_TYPE":0,"NORAD_CAT_ID":39074,"ELEMENT_SET_NO":999,"REV_AT_EPOCH":62198,"BSTAR":-0.0000013186,"MEAN_MOTION_DOT":-0.00000104,"MEAN_MOTION_DDOT":0},{"OBJECT_NAME":"GLOBALSTAR M096","OBJECT_ID":"2013-005D","EPOCH":"2026-07-15T04:20:09.100032","CLASSIFICATION_TYPE":"U","MEAN_MOTION":12.62265715,"ECCENTRICITY":0.0000742,"INCLINATION":52.007,"RA_OF_ASC_NODE":114.3905,"ARG_OF_PERICENTER":41.7537,"MEAN_ANOMALY":318.3386,"EPHEMERIS_TYPE":0,"NORAD_CAT_ID":39075,"ELEMENT_SET_NO":999,"REV_AT_EPOCH":62092,"BSTAR":0.0000090279,"MEAN_MOTION_DOT":-0.00000102,"MEAN_MOTION_DDOT":0},{"OBJECT_NAME":"GLOBALSTAR M078","OBJECT_ID":"2013-005E","EPOCH":"2026-07-15T03:41:27.266784","CLASSIFICATION_TYPE":"U","MEAN_MOTION":12.62260148,"ECCENTRICITY":0.0000833,"INCLINATION":51.9844,"RA_OF_ASC_NODE":198.4442,"ARG_OF_PERICENTER":337.9625,"MEAN_ANOMALY":22.1206,"EPHEMERIS_TYPE":0,"NORAD_CAT_ID":39076,"ELEMENT_SET_NO":999,"REV_AT_EPOCH":61954,"BSTAR":-0.000057557,"MEAN_MOTION_DOT":-0.00000114,"MEAN_MOTION_DDOT":0},{"OBJECT_NAME":"GLOBALSTAR M095","OBJECT_ID":"2013-005F","EPOCH":"2026-07-15T04:19:52.435200","CLASSIFICATION_TYPE":"U","MEAN_MOTION":12.62264146,"ECCENTRICITY":0.0000448,"INCLINATION":52.0055,"RA_OF_ASC_NODE":196.0066,"ARG_OF_PERICENTER":12.1685,"MEAN_ANOMALY":347.9192,"EPHEMERIS_TYPE":0,"NORAD_CAT_ID":39077,"ELEMENT_SET_NO":999,"REV_AT_EPOCH":61940,"BSTAR":-0.000064804,"MEAN_MOTION_DOT":-0.00000115,"MEAN_MOTION_DDOT":0},{"OBJECT_NAME":"GLOBALSTAR M087","OBJECT_ID":"2022-064A","EPOCH":"2026-07-14T17:14:36.394656","CLASSIFICATION_TYPE":"U","MEAN_MOTION":12.62269295,"ECCENTRICITY":0.00009137,"INCLINATION":52.0014,"RA_OF_ASC_NODE":338.6352,"ARG_OF_PERICENTER":85.5772,"MEAN_ANOMALY":274.5199,"EPHEMERIS_TYPE":0,"NORAD_CAT_ID":52888,"ELEMENT_SET_NO":999,"REV_AT_EPOCH":19461,"BSTAR":0.000007203842,"MEAN_MOTION_DOT":-0.00000102,"MEAN_MOTION_DDOT":0}]}
